{
  "type": "FeatureCollection",
  "features": [
    {
      "type": "Feature",
      "properties": {
        "id": "edge_0",
        "road_name": "Main Rd",
        "road_type": "secondary",
        "scenic_score": 6.5,
        "speed_limit_kmh": 60
      },
      "geometry": {
        "type": "LineString",
        "coordinates": [
          [-72.70, 42.40],
          [-72.66, 42.44],
          [-72.62, 42.48]
        ]
      }
    },
    {
      "type": "Feature",
      "properties": {
        "id": "edge_1",
        "road_name": "River Rd",
        "road_type": "scenic_byway",
        "scenic_score": 8.5,
        "speed_limit_kmh": 50
      },
      "geometry": {
        "type": "LineString",
        "coordinates": [
          [-72.70, 42.40],
          [-72.69, 42.45],
          [-72.62, 42.48]
        ]
      }
    }
  ]
}
